start=new Date('2022-11-29T00:00:00.000Z').valueOf();
sats=[{"OBJECT_TYPE":"PAYLOAD","LAUNCH_DATE":"2022-07-17","EPHEMERIS_TYPE":"0","TLE_LINE2":"2 53139  53.2156 151.1841 0002755  41.2248 318.8952 15.08840653 21027","REF_FRAME":"TEME","REV_AT_EPOCH":"2102","PERIAPSIS":"537.838","INCLINATION":"53.2156","NORAD_CAT_ID":"53139","TLE_LINE1":"1 53139U 22083H   22331.90696400  .00001383  00000-0  10500-3 0  9995","SEMIMAJOR_AXIS":"6917.878","BSTAR":"0.00010500000000","OBJECT_ID":"2022-083H","ARG_OF_PERICENTER":"41.2248","FILE":"3671915","CLASSIFICATION_TYPE":"U","MEAN_MOTION_DOT":"0.00001383","MEAN_ELEMENT_THEORY":"SGP4","MEAN_ANOMALY":"318.8952","MEAN_MOTION_DDOT":"0.0000000000000","GP_ID":"218967989","CENTER_NAME":"EARTH","EPOCH":"2022-11-27T21:46:01.689600","SITE":"AFETR","APOAPSIS":"541.649","RA_OF_ASC_NODE":"151.1841","ECCENTRICITY":"0.00027550","TIME_SYSTEM":"UTC","PERIOD":"95.438","RCS_SIZE":"LARGE","OBJECT_NAME":"STARLINK-4185","COUNTRY_CODE":"US","MEAN_MOTION":"15.08840653","ELEMENT_SET_NO":"999","DECAY_DATE":null},{"SITE":"AFETR","EPOCH":"2022-11-28T12:09:48.504960","ECCENTRICITY":"0.00028060","RA_OF_ASC_NODE":"148.4910","APOAPSIS":"541.699","PERIOD":"95.438","TIME_SYSTEM":"UTC","RCS_SIZE":"MEDIUM","MEAN_MOTION_DDOT":"0.0000000000000","GP_ID":"219007155","CENTER_NAME":"EARTH","ELEMENT_SET_NO":"999","MEAN_MOTION":"15.08835839","DECAY_DATE":null,"OBJECT_NAME":"STARLINK-4170","COUNTRY_CODE":"US","INCLINATION":"53.2154","PERIAPSIS":"537.817","REV_AT_EPOCH":"2111","TLE_LINE1":"1 53140U 22083J   22332.50681140 -.00000973  00000-0 -43007-4 0  9994","NORAD_CAT_ID":"53140","SEMIMAJOR_AXIS":"6917.893","OBJECT_ID":"2022-083J","BSTAR":"-0.00004300700000","OBJECT_TYPE":"PAYLOAD","EPHEMERIS_TYPE":"0","LAUNCH_DATE":"2022-07-17","REF_FRAME":"TEME","TLE_LINE2":"2 53140  53.2154 148.4910 0002806  43.1201 317.0010 15.08835839 21116","FILE":"3672556","ARG_OF_PERICENTER":"43.1201","CLASSIFICATION_TYPE":"U","MEAN_ANOMALY":"317.0010","MEAN_ELEMENT_THEORY":"SGP4","MEAN_MOTION_DOT":"-0.00000973"},{"RCS_SIZE":"LARGE","TIME_SYSTEM":"UTC","PERIOD":"95.437","ECCENTRICITY":"0.00030280","RA_OF_ASC_NODE":"148.5556","APOAPSIS":"541.833","SITE":"AFETR","EPOCH":"2022-11-28T11:43:18.890976","CENTER_NAME":"EARTH","MEAN_MOTION_DDOT":"0.0000000000000","GP_ID":"219007375","DECAY_DATE":null,"ELEMENT_SET_NO":"999","MEAN_MOTION":"15.08842407","COUNTRY_CODE":"US","OBJECT_NAME":"STARLINK-4103","OBJECT_ID":"2022-083K","BSTAR":"0.00016061000000","SEMIMAJOR_AXIS":"6917.873","TLE_LINE1":"1 53141U 22083K   22332.48841309  .00002269  00000-0  16061-3 0  9994","NORAD_CAT_ID":"53141","REV_AT_EPOCH":"2111","PERIAPSIS":"537.643","INCLINATION":"53.2162","REF_FRAME":"TEME","TLE_LINE2":"2 53141  53.2162 148.5556 0003028  45.3309 314.7929 15.08842407 21115","EPHEMERIS_TYPE":"0","LAUNCH_DATE":"2022-07-17","OBJECT_TYPE":"PAYLOAD","MEAN_ANOMALY":"314.7929","MEAN_ELEMENT_THEORY":"SGP4","MEAN_MOTION_DOT":"0.00002269","CLASSIFICATION_TYPE":"U","FILE":"3672556","ARG_OF_PERICENTER":"45.3309"},{"OBJECT_TYPE":"PAYLOAD","LAUNCH_DATE":"2022-07-17","EPHEMERIS_TYPE":"0","TLE_LINE2":"2 53142  53.2173 151.7979 0002478  47.5861 312.5341 15.08843361 21000","REF_FRAME":"TEME","PERIAPSIS":"538.021","REV_AT_EPOCH":"2100","INCLINATION":"53.2173","NORAD_CAT_ID":"53142","TLE_LINE1":"1 53142U 22083L   22331.77080789  .00000065  00000-0  22202-4 0  9990","SEMIMAJOR_AXIS":"6917.870","BSTAR":"0.00002220200000","OBJECT_ID":"2022-083L","ARG_OF_PERICENTER":"47.5861","FILE":"3672000","CLASSIFICATION_TYPE":"U","MEAN_MOTION_DOT":"0.00000065","MEAN_ELEMENT_THEORY":"SGP4","MEAN_ANOMALY":"312.5341","GP_ID":"218996016","MEAN_MOTION_DDOT":"0.0000000000000","CENTER_NAME":"EARTH","EPOCH":"2022-11-27T18:29:57.801696","SITE":"AFETR","APOAPSIS":"541.449","RA_OF_ASC_NODE":"151.7979","ECCENTRICITY":"0.00024780","PERIOD":"95.437","TIME_SYSTEM":"UTC","RCS_SIZE":"LARGE","OBJECT_NAME":"STARLINK-4101","COUNTRY_CODE":"US","MEAN_MOTION":"15.08843361","ELEMENT_SET_NO":"999","DECAY_DATE":null},{"CLASSIFICATION_TYPE":"U","ARG_OF_PERICENTER":"51.6666","FILE":"3672292","MEAN_MOTION_DOT":"-0.00000073","MEAN_ELEMENT_THEORY":"SGP4","MEAN_ANOMALY":"308.4550","LAUNCH_DATE":"2022-07-17","EPHEMERIS_TYPE":"0","OBJECT_TYPE":"PAYLOAD","TLE_LINE2":"2 53143  53.2183 149.7715 0002492  51.6666 308.4550 15.08842261 21073","REF_FRAME":"TEME","NORAD_CAT_ID":"53143","TLE_LINE1":"1 53143U 22083M   22332.21976176 -.00000073  00000-0  13529-4 0  9997","PERIAPSIS":"538.015","REV_AT_EPOCH":"2107","INCLINATION":"53.2183","BSTAR":"0.00001352900000","OBJECT_ID":"2022-083M","SEMIMAJOR_AXIS":"6917.873","OBJECT_NAME":"STARLINK-4102","COUNTRY_CODE":"US","MEAN_MOTION":"15.08842261","ELEMENT_SET_NO":"999","DECAY_DATE":null,"CENTER_NAME":"EARTH","GP_ID":"219001944","MEAN_MOTION_DDOT":"0.0000000000000","RA_OF_ASC_NODE":"149.7715","APOAPSIS":"541.462","ECCENTRICITY":"0.00024920","EPOCH":"2022-11-28T05:16:27.416064","SITE":"AFETR","RCS_SIZE":"LARGE","TIME_SYSTEM":"UTC","PERIOD":"95.437"},{"LAUNCH_DATE":"2022-07-17","EPHEMERIS_TYPE":"0","OBJECT_TYPE":"PAYLOAD","TLE_LINE2":"2 53144  53.2197 147.3527 0003191  47.0095 313.1164 15.08852561 21153","REF_FRAME":"TEME","NORAD_CAT_ID":"53144","TLE_LINE1":"1 53144U 22083N   22332.76071444 -.00000101  00000-0  11795-4 0  9997","REV_AT_EPOCH":"2115","PERIAPSIS":"537.500","INCLINATION":"53.2197","BSTAR":"0.00001179500000","OBJECT_ID":"2022-083N","SEMIMAJOR_AXIS":"6917.842","CLASSIFICATION_TYPE":"U","ARG_OF_PERICENTER":"47.0095","FILE":"3672549","MEAN_MOTION_DOT":"-0.00000101","MEAN_ANOMALY":"313.1164","MEAN_ELEMENT_THEORY":"SGP4","CENTER_NAME":"EARTH","MEAN_MOTION_DDOT":"0.0000000000000","GP_ID":"219007385","APOAPSIS":"541.914","RA_OF_ASC_NODE":"147.3527","ECCENTRICITY":"0.00031910","EPOCH":"2022-11-28T18:15:25.727616","SITE":"AFETR","RCS_SIZE":"LARGE","PERIOD":"95.437","TIME_SYSTEM":"UTC","OBJECT_NAME":"STARLINK-4100","COUNTRY_CODE":"US","MEAN_MOTION":"15.08852561","ELEMENT_SET_NO":"999","DECAY_DATE":null},{"DECAY_DATE":null,"MEAN_MOTION":"15.08831723","ELEMENT_SET_NO":"999","COUNTRY_CODE":"US","OBJECT_NAME":"STARLINK-4106","RCS_SIZE":"LARGE","PERIOD":"95.438","TIME_SYSTEM":"UTC","RA_OF_ASC_NODE":"151.5793","APOAPSIS":"541.354","ECCENTRICITY":"0.00022890","EPOCH":"2022-11-27T19:33:33.160032","SITE":"AFETR","CENTER_NAME":"EARTH","MEAN_MOTION_DDOT":"0.0000000000000","GP_ID":"218996031","MEAN_MOTION_DOT":"-0.00000293","MEAN_ANOMALY":"307.6663","MEAN_ELEMENT_THEORY":"SGP4","CLASSIFICATION_TYPE":"U","ARG_OF_PERICENTER":"52.4537","FILE":"3672001","BSTAR":"-0.00000030543000","OBJECT_ID":"2022-083P","SEMIMAJOR_AXIS":"6917.906","NORAD_CAT_ID":"53145","TLE_LINE1":"1 53145U 22083P   22331.81496713 -.00000293  00000-0 -30543-6 0  9990","INCLINATION":"53.2173","PERIAPSIS":"538.187","REV_AT_EPOCH":"2101","REF_FRAME":"TEME","TLE_LINE2":"2 53145  53.2173 151.5793 0002289  52.4537 307.6663 15.08831723 21012","LAUNCH_DATE":"2022-07-17","EPHEMERIS_TYPE":"0","OBJECT_TYPE":"PAYLOAD"},{"TIME_SYSTEM":"UTC","PERIOD":"95.437","RCS_SIZE":"LARGE","EPOCH":"2022-11-28T18:10:09.079392","SITE":"AFETR","RA_OF_ASC_NODE":"147.3616","APOAPSIS":"541.374","ECCENTRICITY":"0.00023580","MEAN_MOTION_DDOT":"0.0000000000000","GP_ID":"219007384","CENTER_NAME":"EARTH","DECAY_DATE":null,"MEAN_MOTION":"15.08840921","ELEMENT_SET_NO":"999","COUNTRY_CODE":"US","OBJECT_NAME":"STARLINK-4099","SEMIMAJOR_AXIS":"6917.878","BSTAR":"0.00000438420000","OBJECT_ID":"2022-083Q","REV_AT_EPOCH":"2115","PERIAPSIS":"538.111","INCLINATION":"53.2187","NORAD_CAT_ID":"53146","TLE_LINE1":"1 53146U 22083Q   22332.75704953 -.00000219  00000-0  43842-5 0  9995","REF_FRAME":"TEME","TLE_LINE2":"2 53146  53.2187 147.3616 0002358  50.4060 309.7140 15.08840921 21159","OBJECT_TYPE":"PAYLOAD","LAUNCH_DATE":"2022-07-17","EPHEMERIS_TYPE":"0","MEAN_MOTION_DOT":"-0.00000219","MEAN_ELEMENT_THEORY":"SGP4","MEAN_ANOMALY":"309.7140","ARG_OF_PERICENTER":"50.4060","FILE":"3672549","CLASSIFICATION_TYPE":"U"},{"MEAN_ANOMALY":"310.6150","MEAN_ELEMENT_THEORY":"SGP4","MEAN_MOTION_DOT":"-0.00000520","CLASSIFICATION_TYPE":"U","FILE":"3671921","ARG_OF_PERICENTER":"49.5072","OBJECT_ID":"2022-083R","BSTAR":"-0.00001452700000","SEMIMAJOR_AXIS":"6917.892","TLE_LINE1":"1 53147U 22083R   22331.81128990 -.00000520  00000-0 -14527-4 0  9996","NORAD_CAT_ID":"53147","REV_AT_EPOCH":"2103","PERIAPSIS":"537.934","INCLINATION":"53.2170","TLE_LINE2":"2 53147  53.2170 151.5949 0002636  49.5072 310.6150 15.08836072 21030","REF_FRAME":"TEME","EPHEMERIS_TYPE":"0","LAUNCH_DATE":"2022-07-17","OBJECT_TYPE":"PAYLOAD","DECAY_DATE":null,"ELEMENT_SET_NO":"999","MEAN_MOTION":"15.08836072","COUNTRY_CODE":"US","OBJECT_NAME":"STARLINK-4094","RCS_SIZE":"LARGE","PERIOD":"95.438","TIME_SYSTEM":"UTC","ECCENTRICITY":"0.00026360","APOAPSIS":"541.581","RA_OF_ASC_NODE":"151.5949","SITE":"AFETR","EPOCH":"2022-11-27T19:28:15.447360","CENTER_NAME":"EARTH","GP_ID":"218993236","MEAN_MOTION_DDOT":"0.0000000000000"},{"OBJECT_NAME":"STARLINK-4066","COUNTRY_CODE":"US","MEAN_MOTION":"15.08833990","ELEMENT_SET_NO":"999","DECAY_DATE":null,"MEAN_MOTION_DDOT":"0.0000000000000","GP_ID":"218996413","CENTER_NAME":"EARTH","EPOCH":"2022-11-27T22:49:37.855776","SITE":"AFETR","RA_OF_ASC_NODE":"150.9725","APOAPSIS":"541.894","ECCENTRICITY":"0.00030800","TIME_SYSTEM":"UTC","PERIOD":"95.438","RCS_SIZE":"LARGE","ARG_OF_PERICENTER":"41.7066","FILE":"3672004","CLASSIFICATION_TYPE":"U","MEAN_MOTION_DOT":"-0.00000486","MEAN_ANOMALY":"318.4161","MEAN_ELEMENT_THEORY":"SGP4","OBJECT_TYPE":"PAYLOAD","LAUNCH_DATE":"2022-07-17","EPHEMERIS_TYPE":"0","REF_FRAME":"TEME","TLE_LINE2":"2 53148  53.2179 150.9725 0003080  41.7066 318.4161 15.08833990 21030","PERIAPSIS":"537.633","INCLINATION":"53.2179","REV_AT_EPOCH":"2103","NORAD_CAT_ID":"53148","TLE_LINE1":"1 53148U 22083S   22331.95113259 -.00000486  00000-0 -12409-4 0  9992","SEMIMAJOR_AXIS":"6917.899","BSTAR":"-0.00001240900000","OBJECT_ID":"2022-083S"}];
